[{"OBJECT_NAME":"STARLINK-31056","OBJECT_ID":"2023-192V","EPOCH":"2026-03-09T23:43:04.444032","MEAN_MOTION":15.30192484,"ECCENTRICITY":0.00013249,"INCLINATION":53.161,"RA_OF_ASC_NODE":61.1699,"ARG_OF_PERICENTER":90.8429,"MEAN_ANOMALY":269.2723,"EPHEMERIS_TYPE":0,"CLASSIFICATION_TYPE":"U","NORAD_CAT_ID":58550,"ELEMENT_SET_NO":999,"REV_AT_EPOCH":12603,"BSTAR":6.0407508e-5,"MEAN_MOTION_DOT":1.43e-5,"MEAN_MOTION_DDOT":0},{"OBJECT_NAME":"BREEZE-KM R\/B","OBJECT_ID":"2016-011B","EPOCH":"2026-03-09T13:46:31.765728","MEAN_MOTION":15.28220455,"ECCENTRICITY":0.0143188,"INCLINATION":98.6722,"RA_OF_ASC_NODE":284.67,"ARG_OF_PERICENTER":63.2473,"MEAN_ANOMALY":298.3333,"EPHEMERIS_TYPE":0,"CLASSIFICATION_TYPE":"U","NORAD_CAT_ID":41336,"ELEMENT_SET_NO":999,"REV_AT_EPOCH":55224,"BSTAR":0.00023628,"MEAN_MOTION_DOT":8.734e-5,"MEAN_MOTION_DDOT":0}]
